TIANQI-15               
1 49027U 21065B   26068.81163741  .00006722  00000+0  41179-3 0  9990
2 49027  34.9979 108.2420 0007067 250.7766 109.2180 15.09508085254244
STARLINK-3538           
1 51996U 22025AS  26068.06516833 -.00002095  00000+0 -11352-3 0  9997
2 51996  53.2186  21.9251 0002003  84.1129 276.0092 15.08846662220823
